{
  "type": "FeatureCollection",
  "features": [
    {
      "type": "Feature",
      "properties": {
        "norad_id": 55973,
        "name": "TIANMU-1 03",
        "group": "weather",
        "lat": 3.4608209404577654,
        "lon": 163.57275402422002,
        "alt_km": 442.36164221143736,
        "timestamp": "2025-12-26T23:26:41.800286+00:00",
        "meta_object_name": "TIANMU-1 03",
        "meta_object_id": "2023-039A",
        "meta_epoch": "2025-12-26T15:38:21.723648",
        "meta_mean_motion": 15.41335374,
        "meta_eccentricity": 0.00036847,
        "meta_inclination": 97.5114,
        "meta_ra_of_asc_node": 163.6955,
        "meta_arg_of_pericenter": 20.0398,
        "meta_mean_anomaly": 340.0992,
        "meta_ephemeris_type": 0,
        "meta_classification_type": "U",
        "meta_norad_cat_id": 55973,
        "meta_element_set_no": 999,
        "meta_rev_at_epoch": 15420,
        "meta_bstar": 0.00040350703,
        "meta_mean_motion_dot": 0.00016755,
        "meta_mean_motion_ddot": 0,
        "tle_line1": "1 55973U 23039A   25360.65164032  .00016755  00000+0  40351-3 0  9998",
        "tle_line2": "2 55973  97.5114 163.6955 0003684  20.0398 340.0992 15.41335374154201"
      },
      "geometry": {
        "type": "Point",
        "coordinates": [
          163.57275402422002,
          3.4608209404577654
        ]
      }
    },
    {
      "type": "Feature",
      "properties": {
        "norad_id": 55974,
        "name": "TIANMU-1 04",
        "group": "weather",
        "lat": 44.36697995623299,
        "lon": -9.375804800740223,
        "alt_km": 439.01533845386257,
        "timestamp": "2025-12-26T23:26:41.800295+00:00",
        "meta_object_name": "TIANMU-1 04",
        "meta_object_id": "2023-039B",
        "meta_epoch": "2025-12-26T18:11:16.912032",
        "meta_mean_motion": 15.41683224,
        "meta_eccentricity": 0.0004285,
        "meta_inclination": 97.5046,
        "meta_ra_of_asc_node": 162.9903,
        "meta_arg_of_pericenter": 12.986,
        "meta_mean_anomaly": 347.1496,
        "meta_ephemeris_type": 0,
        "meta_classification_type": "U",
        "meta_norad_cat_id": 55974,
        "meta_element_set_no": 999,
        "meta_rev_at_epoch": 15422,
        "meta_bstar": 0.000408,
        "meta_mean_motion_dot": 0.00017142,
        "meta_mean_motion_ddot": 0,
        "tle_line1": "1 55974U 23039B   25360.75783463  .00017142  00000+0  40800-3 0  9995",
        "tle_line2": "2 55974  97.5046 162.9903 0004285  12.9860 347.1496 15.41683224154222"
      },
      "geometry": {
        "type": "Point",
        "coordinates": [
          -9.375804800740223,
          44.36697995623299
        ]
      }
    },
    {
      "type": "Feature",
      "properties": {
        "norad_id": 55975,
        "name": "TIANMU-1 05",
        "group": "weather",
        "lat": 32.2491528725803,
        "lon": -11.517707965365453,
        "alt_km": 441.30735639589693,
        "timestamp": "2025-12-26T23:26:41.800354+00:00",
        "meta_object_name": "TIANMU-1 05",
        "meta_object_id": "2023-039C",
        "meta_epoch": "2025-12-26T18:08:01.191840",
        "meta_mean_motion": 15.41295272,
        "meta_eccentricity": 0.0003866,
        "meta_inclination": 97.5093,
        "meta_ra_of_asc_node": 163.4807,
        "meta_arg_of_pericenter": 39.6319,
        "meta_mean_anomaly": 320.5209,
        "meta_ephemeris_type": 0,
        "meta_classification_type": "U",
        "meta_norad_cat_id": 55975,
        "meta_element_set_no": 999,
        "meta_rev_at_epoch": 15420,
        "meta_bstar": 0.00040612,
        "meta_mean_motion_dot": 0.00016842,
        "meta_mean_motion_ddot": 0,
        "tle_line1": "1 55975U 23039C   25360.75556935  .00016842  00000+0  40612-3 0  9995",
        "tle_line2": "2 55975  97.5093 163.4807 0003866  39.6319 320.5209 15.41295272154200"
      },
      "geometry": {
        "type": "Point",
        "coordinates": [
          -11.517707965365453,
          32.2491528725803
        ]
      }
    },
    {
      "type": "Feature",
      "properties": {
        "norad_id": 55976,
        "name": "TIANMU-1 06",
        "group": "weather",
        "lat": 53.59632558494856,
        "lon": -5.507924497564233,
        "alt_km": 436.137912280994,
        "timestamp": "2025-12-26T23:26:41.800364+00:00",
        "meta_object_name": "TIANMU-1 06",
        "meta_object_id": "2023-039D",
        "meta_epoch": "2025-12-26T15:06:48.919104",
        "meta_mean_motion": 15.41729586,
        "meta_eccentricity": 0.00041161,
        "meta_inclination": 97.5104,
        "meta_ra_of_asc_node": 163.8279,
        "meta_arg_of_pericenter": 33.6372,
        "meta_mean_anomaly": 326.5135,
        "meta_ephemeris_type": 0,
        "meta_classification_type": "U",
        "meta_norad_cat_id": 55976,
        "meta_element_set_no": 999,
        "meta_rev_at_epoch": 15420,
        "meta_bstar": 0.00039853481,
        "meta_mean_motion_dot": 0.00016767,
        "meta_mean_motion_ddot": 0,
        "tle_line1": "1 55976U 23039D   25360.62973286  .00016767  00000+0  39853-3 0  9995",
        "tle_line2": "2 55976  97.5104 163.8279 0004116  33.6372 326.5135 15.41729586154207"
      },
      "geometry": {
        "type": "Point",
        "coordinates": [
          -5.507924497564233,
          53.59632558494856
        ]
      }
    },
    {
      "type": "Feature",
      "properties": {
        "norad_id": 56232,
        "name": "FENGYUN 3G",
        "group": "weather",
        "lat": -26.476957355065995,
        "lon": -1.2808817692120313,
        "alt_km": 413.25569985955644,
        "timestamp": "2025-12-26T23:26:41.800375+00:00",
        "meta_object_name": "FENGYUN 3G",
        "meta_object_id": "2023-055A",
        "meta_epoch": "2025-12-26T14:47:40.969824",
        "meta_mean_motion": 15.52145415,
        "meta_eccentricity": 0.00039295,
        "meta_inclination": 49.9929,
        "meta_ra_of_asc_node": 155.8459,
        "meta_arg_of_pericenter": 295.5477,
        "meta_mean_anomaly": 64.5083,
        "meta_ephemeris_type": 0,
        "meta_classification_type": "U",
        "meta_norad_cat_id": 56232,
        "meta_element_set_no": 999,
        "meta_rev_at_epoch": 15318,
        "meta_bstar": 0.00049421747,
        "meta_mean_motion_dot": 0.00030151,
        "meta_mean_motion_ddot": 0,
        "tle_line1": "1 56232U 23055A   25360.61644641  .00030151  00000+0  49422-3 0  9994",
        "tle_line2": "2 56232  49.9929 155.8459 0003929 295.5477  64.5083 15.52145415153188"
      },
      "geometry": {
        "type": "Point",
        "coordinates": [
          -1.2808817692120313,
          -26.476957355065995
        ]
      }
    },
    {
      "type": "Feature",
      "properties": {
        "norad_id": 57166,
        "name": "METEOR-M2 3",
        "group": "weather",
        "lat": 65.90879006313179,
        "lon": -105.86386405695463,
        "alt_km": 807.2610012857704,
        "timestamp": "2025-12-26T23:26:41.800385+00:00",
        "meta_object_name": "METEOR-M2 3",
        "meta_object_id": "2023-091A",
        "meta_epoch": "2025-12-26T14:29:12.387840",
        "meta_mean_motion": 14.24027725,
        "meta_eccentricity": 0.00031832,
        "meta_inclination": 98.636,
        "meta_ra_of_asc_node": 53.8996,
        "meta_arg_of_pericenter": 325.0291,
        "meta_mean_anomaly": 35.0679,
        "meta_ephemeris_type": 0,
        "meta_classification_type": "U",
        "meta_norad_cat_id": 57166,
        "meta_element_set_no": 999,
        "meta_rev_at_epoch": 12995,
        "meta_bstar": 2.2270077e-05,
        "meta_mean_motion_dot": 8e-08,
        "meta_mean_motion_ddot": 0,
        "tle_line1": "1 57166U 23091A   25360.60361560  .00000008  00000+0  22270-4 0  9997",
        "tle_line2": "2 57166  98.6360  53.8996 0003183 325.0291  35.0679 14.24027725129956"
      },
      "geometry": {
        "type": "Point",
        "coordinates": [
          -105.86386405695463,
          65.90879006313179
        ]
      }
    },
    {
      "type": "Feature",
      "properties": {
        "norad_id": 57399,
        "name": "TIANMU-1 07",
        "group": "weather",
        "lat": -47.72145747492459,
        "lon": -137.576324930881,
        "alt_km": 491.21387945545666,
        "timestamp": "2025-12-26T23:26:41.800394+00:00",
        "meta_object_name": "TIANMU-1 07",
        "meta_object_id": "2023-101A",
        "meta_epoch": "2025-12-26T14:35:33.677952",
        "meta_mean_motion": 15.28269001,
        "meta_eccentricity": 0.00049034,
        "meta_inclination": 97.2856,
        "meta_ra_of_asc_node": 50.1517,
        "meta_arg_of_pericenter": 45.5264,
        "meta_mean_anomaly": 314.6376,
        "meta_ephemeris_type": 0,
        "meta_classification_type": "U",
        "meta_norad_cat_id": 57399,
        "meta_element_set_no": 999,
        "meta_rev_at_epoch": 13527,
        "meta_bstar": 0.00027722231,
        "meta_mean_motion_dot": 7.565e-05,
        "meta_mean_motion_ddot": 0,
        "tle_line1": "1 57399U 23101A   25360.60802868  .00007565  00000+0  27722-3 0  9999",
        "tle_line2": "2 57399  97.2856  50.1517 0004903  45.5264 314.6376 15.28269001135275"
      },
      "geometry": {
        "type": "Point",
        "coordinates": [
          -137.576324930881,
          -47.72145747492459
        ]
      }
    }
  ]
}